IRIDIUM 119             
1 42959U 17061E   23328.32155604  .00000594  00000+0  20507-3 0  9992
2 42959  86.3989  56.3474 0002058 104.2813 255.8611 14.34220125320677
IRIDIUM 107             
1 42960U 17061F   23328.48012375  .00000518  00000+0  17781-3 0  9994
2 42960  86.3991  56.2967 0002285 100.6118 259.5335 14.34220044320706
IRIDIUM 132             
1 42961U 17061G   23328.34692739  .00000661  00000+0  22897-3 0  9991
2 42961  86.3991  56.3387 0002229 101.7248 258.4198 14.34220630320681
IRIDIUM 136             
1 42962U 17061H   23328.30886286  .00000517  00000+0  17758-3 0  9990
2 42962  86.3998  56.3592 0002054  99.6613 260.4815 14.34216778320692
IRIDIUM 139             
1 42963U 17061J   23328.31521634  .00000492  00000+0  16854-3 0  9993
2 42963  86.4000  56.4039 0002405  99.4140 260.7327 14.34216942320704
IRIDIUM 125             
1 42964U 17061K   23328.30255798  .00000533  00000+0  18313-3 0  9996
2 42964  86.3993  56.4505 0002160 107.7363 252.4069 14.34219949320713
IRIDIUM 135             
1 43070U 17083A   23328.55573063  .00000497  00000+0  17029-3 0  9996
2 43070  86.3975 353.0570 0002404  88.6953 271.4518 14.34219363310048
IRIDIUM 138             
1 43071U 17083B   23328.58110004  .00000501  00000+0  17186-3 0  9992
2 43071  86.3963 352.7895 0002117  98.5906 261.5530 14.34222905310030
